{"type":"FeatureCollection","name":"ne_110m_populated_places","crs":{"type":"name","properties":{"name":"urn:ogc:def:crs:OGC:1.3:CRS84"}},"features":[{"type":"Feature","properties":{"name":"Vatican City","rank":8},"bbox":[12.453387,41.903282,12.453387,41.903282],"geometry":{"type":"Point","coordinates":[12.453387,41.903282]}},{"type":"Feature","properties":{"name":"San Marino","rank":7},"bbox":[12.44177,43.936096,12.44177,43.936096],"geometry":{"type":"Point","coordinates":[12.44177,43.936096]}},{"type":"Feature","properties":{"name":"Vaduz","rank":7},"bbox":[9.51667,47.133724,9.51667,47.133724],"geometry":{"type":"Point","coordinates":[9.51667,47.133724]}},{"type":"Feature","properties":{"name":"Lobamba","rank":6},"bbox":[31.199997,-26.466667,31.199997,-26.466667],"geometry":{"type":"Point","coordinates":[31.199997,-26.466667]}},{"type":"Feature","properties":{"name":"Luxembourg","rank":6},"bbox":[6.130003,49.61166,6.130003,49.61166],"geometry":{"type":"Point","coordinates":[6.130003,49.61166]}},{"type":"Feature","properties":{"name":"Palikir","rank":6},"bbox":[158.149974,6.916644,158.149974,6.916644],"geometry":{"type":"Point","coordinates":[158.149974,6.916644]}},{"type":"Feature","properties":{"name":"Majuro","rank":6},"bbox":[171.38,7.103004,171.38,7.103004],"geometry":{"type":"Point","coordinates":[171.38,7.103004]}},{"type":"Feature","properties":{"name":"Funafuti","rank":6},"bbox":[179.216647,-8.516652,179.216647,-8.516652],"geometry":{"type":"Point","coordinates":[179.216647,-8.516652]}},{"type":"Feature","properties":{"name":"Melekeok","rank":6},"bbox":[134.626549,7.487396,134.626549,7.487396],"geometry":{"type":"Point","coordinates":[134.626549,7.487396]}},{"type":"Feature","properties":{"name":"Bir Lehlou","rank":6},"bbox":[-9.652522,26.119167,-9.652522,26.119167],"geometry":{"type":"Point","coordinates":[-9.652522,26.119167]}},{"type":"Feature","properties":{"name":"Monaco","rank":6},"bbox":[7.406913,43.739646,7.406913,43.739646],"geometry":{"type":"Point","coordinates":[7.406913,43.739646]}},{"type":"Feature","properties":{"name":"Tarawa","rank":6},"bbox":[173.017571,1.338188,173.017571,1.338188],"geometry":{"type":"Point","coordinates":[173.017571,1.338188]}},{"type":"Feature","properties":{"name":"Moroni","rank":6},"bbox":[43.240244,-11.704158,43.240244,-11.704158],"geometry":{"type":"Point","coordinates":[43.240244,-11.704158]}},{"type":"Feature","properties":{"name":"Andorra","rank":6},"bbox":[1.526594,42.510753,1.526594,42.510753],"geometry":{"type":"Point","coordinates":[1.526594,42.510753]}},{"type":"Feature","properties":{"name":"Port-of-Spain","rank":4},"bbox":[-61.517031,10.651997,-61.517031,10.651997],"geometry":{"type":"Point","coordinates":[-61.517031,10.651997]}},{"type":"Feature","properties":{"name":"Kigali","rank":4},"bbox":[30.058586,-1.951644,30.058586,-1.951644],"geometry":{"type":"Point","coordinates":[30.058586,-1.951644]}},{"type":"Feature","properties":{"name":"Mbabane","rank":4},"bbox":[31.133335,-26.316651,31.133335,-26.316651],"geometry":{"type":"Point","coordinates":[31.133335,-26.316651]}},{"type":"Feature","properties":{"name":"Juba","rank":4},"bbox":[31.580026,4.829975,31.580026,4.829975],"geometry":{"type":"Point","coordinates":[31.580026,4.829975]}},{"type":"Feature","properties":{"name":"The Hague","rank":4},"bbox":[4.269961,52.080037,4.269961,52.080037],"geometry":{"type":"Point","coordinates":[4.269961,52.080037]}},{"type":"Feature","properties":{"name":"Ljubljana","rank":4},"bbox":[14.514969,46.055288,14.514969,46.055288],"geometry":{"type":"Point","coordinates":[14.514969,46.055288]}},{"type":"Feature","properties":{"name":"Bratislava","rank":4},"bbox":[17.116981,48.150018,17.116981,48.150018],"geometry":{"type":"Point","coordinates":[17.116981,48.150018]}},{"type":"Feature","properties":{"name":"Doha","rank":4},"bbox":[51.532968,25.286556,51.532968,25.286556],"geometry":{"type":"Point","coordinates":[51.532968,25.286556]}},{"type":"Feature","properties":{"name":"Podgorica","rank":4},"bbox":[19.266307,42.465972,19.266307,42.465972],"geometry":{"type":"Point","coordinates":[19.266307,42.465972]}},{"type":"Feature","properties":{"name":"Sri Jayawardenepura Kotte","rank":4},"bbox":[79.949993,6.900004,79.949993,6.900004],"geometry":{"type":"Point","coordinates":[79.949993,6.900004]}},{"type":"Feature","properties":{"name":"Baguio","rank":4},"bbox":[120.569943,16.429991,120.569943,16.429991],"geometry":{"type":"Point","coordinates":[120.569943,16.429991]}},{"type":"Feature","properties":{"name":"Dodoma","rank":4},"bbox":[35.750004,-6.183306,35.750004,-6.183306],"geometry":{"type":"Point","coordinates":[35.750004,-6.183306]}},{"type":"Feature","properties":{"name":"Bern","rank":4},"bbox":[7.466976,46.916683,7.466976,46.916683],"geometry":{"type":"Point","coordinates":[7.466976,46.916683]}},{"type":"Feature","properties":{"name":"Laayoune","rank":4},"bbox":[-13.200006,27.149982,-13.200006,27.149982],"geometry":{"type":"Point","coordinates":[-13.200006,27.149982]}},{"type":"Feature","properties":{"name":"Pristina","rank":4},"bbox":[21.165984,42.66671,21.165984,42.66671],"geometry":{"type":"Point","coordinates":[21.165984,42.66671]}},{"type":"Feature","properties":{"name":"Roseau","rank":4},"bbox":[-61.387013,15.301016,-61.387013,15.301016],"geometry":{"type":"Point","coordinates":[-61.387013,15.301016]}},{"type":"Feature","properties":{"name":"Djibouti","rank":4},"bbox":[43.148002,11.595014,43.148002,11.595014],"geometry":{"type":"Point","coordinates":[43.148002,11.595014]}},{"type":"Feature","properties":{"name":"Putrajaya","rank":4},"bbox":[101.695037,2.932515,101.695037,2.932515],"geometry":{"type":"Point","coordinates":[101.695037,2.932515]}},{"type":"Feature","properties":{"name":"Kyoto","rank":4},"bbox":[135.748052,35.031938,135.748052,35.031938],"geometry":{"type":"Point","coordinates":[135.748052,35.031938]}},{"type":"Feature","properties":{"name":"Banjul","rank":4},"bbox":[-16.591701,13.453876,-16.591701,13.453876],"geometry":{"type":"Point","coordinates":[-16.591701,13.453876]}},{"type":"Feature","properties":{"name":"Skopje","rank":4},"bbox":[21.433461,42.000006,21.433461,42.000006],"geometry":{"type":"Point","coordinates":[21.433461,42.000006]}},{"type":"Feature","properties":{"name":"Bridgetown","rank":4},"bbox":[-59.616527,13.102003,-59.616527,13.102003],"geometry":{"type":"Point","coordinates":[-59.616527,13.102003]}},{"type":"Feature","properties":{"name":"Porto-Novo","rank":4},"bbox":[2.616626,6.483311,2.616626,6.483311],"geometry":{"type":"Point","coordinates":[2.616626,6.483311]}},{"type":"Feature","properties":{"name":"Bujumbura","rank":4},"bbox":[29.360006,-3.376087,29.360006,-3.376087],"geometry":{"type":"Point","coordinates":[29.360006,-3.376087]}},{"type":"Feature","properties":{"name":"Kingstown","rank":4},"bbox":[-61.220236,13.155756,-61.220236,13.155756],"geometry":{"type":"Point","coordinates":[-61.220236,13.155756]}},{"type":"Feature","properties":{"name":"Castries","rank":4},"bbox":[-60.992875,14.007875,-60.992875,14.007875],"geometry":{"type":"Point","coordinates":[-60.992875,14.007875]}},{"type":"Feature","properties":{"name":"Basseterre","rank":4},"bbox":[-62.717009,17.302031,-62.717009,17.302031],"geometry":{"type":"Point","coordinates":[-62.717009,17.302031]}},{"type":"Feature","properties":{"name":"Port Louis","rank":4},"bbox":[57.499994,-20.166639,57.499994,-20.166639],"geometry":{"type":"Point","coordinates":[57.499994,-20.166639]}},{"type":"Feature","properties":{"name":"Saint George's","rank":4},"bbox":[-61.741643,12.052633,-61.741643,12.052633],"geometry":{"type":"Point","coordinates":[-61.741643,12.052633]}},{"type":"Feature","properties":{"name":"Manama","rank":4},"bbox":[50.583052,26.236136,50.583052,26.236136],"geometry":{"type":"Point","coordinates":[50.583052,26.236136]}},{"type":"Feature","properties":{"name":"Saint John's","rank":4},"bbox":[-61.850034,17.118036,-61.850034,17.118036],"geometry":{"type":"Point","coordinates":[-61.850034,17.118036]}},{"type":"Feature","properties":{"name":"Montevideo","rank":3},"bbox":[-56.186823,-34.905376,-56.186823,-34.905376],"geometry":{"type":"Point","coordinates":[-56.186823,-34.905376]}},{"type":"Feature","properties":{"name":"Lom\u00e9","rank":3},"bbox":[1.220811,6.133883,1.220811,6.133883],"geometry":{"type":"Point","coordinates":[1.220811,6.133883]}},{"type":"Feature","properties":{"name":"Tunis","rank":3},"bbox":[10.179678,36.802778,10.179678,36.802778],"geometry":{"type":"Point","coordinates":[10.179678,36.802778]}},{"type":"Feature","properties":{"name":"Abu Dhabi","rank":3},"bbox":[54.366593,24.466684,54.366593,24.466684],"geometry":{"type":"Point","coordinates":[54.366593,24.466684]}},{"type":"Feature","properties":{"name":"Ashgabat","rank":3},"bbox":[58.383299,37.949995,58.383299,37.949995],"geometry":{"type":"Point","coordinates":[58.383299,37.949995]}},{"type":"Feature","properties":{"name":"Lusaka","rank":3},"bbox":[28.281382,-15.414698,28.281382,-15.414698],"geometry":{"type":"Point","coordinates":[28.281382,-15.414698]}},{"type":"Feature","properties":{"name":"Harare","rank":3},"bbox":[31.042764,-17.815844,31.042764,-17.815844],"geometry":{"type":"Point","coordinates":[31.042764,-17.815844]}},{"type":"Feature","properties":{"name":"Dili","rank":3},"bbox":[125.579456,-8.559388,125.579456,-8.559388],"geometry":{"type":"Point","coordinates":[125.579456,-8.559388]}},{"type":"Feature","properties":{"name":"Port Vila","rank":3},"bbox":[168.316641,-17.73335,168.316641,-17.73335],"geometry":{"type":"Point","coordinates":[168.316641,-17.73335]}},{"type":"Feature","properties":{"name":"Tegucigalpa","rank":3},"bbox":[-87.219475,14.103991,-87.219475,14.103991],"geometry":{"type":"Point","coordinates":[-87.219475,14.103991]}},{"type":"Feature","properties":{"name":"Georgetown","rank":3},"bbox":[-58.167029,6.801974,-58.167029,6.801974],"geometry":{"type":"Point","coordinates":[-58.167029,6.801974]}},{"type":"Feature","properties":{"name":"Reykjav\u00edk","rank":3},"bbox":[-21.936546,64.143459,-21.936546,64.143459],"geometry":{"type":"Point","coordinates":[-21.936546,64.143459]}},{"type":"Feature","properties":{"name":"Port-au-Prince","rank":3},"bbox":[-72.33798,18.54297,-72.33798,18.54297],"geometry":{"type":"Point","coordinates":[-72.33798,18.54297]}},{"type":"Feature","properties":{"name":"Kampala","rank":3},"bbox":[32.581378,0.318605,32.581378,0.318605],"geometry":{"type":"Point","coordinates":[32.581378,0.318605]}},{"type":"Feature","properties":{"name":"Paramaribo","rank":3},"bbox":[-55.167031,5.83503,-55.167031,5.83503],"geometry":{"type":"Point","coordinates":[-55.167031,5.83503]}},{"type":"Feature","properties":{"name":"Niamey","rank":3},"bbox":[2.11471,13.518652,2.11471,13.518652],"geometry":{"type":"Point","coordinates":[2.11471,13.518652]}},{"type":"Feature","properties":{"name":"Dushanbe","rank":3},"bbox":[68.773879,38.560035,68.773879,38.560035],"geometry":{"type":"Point","coordinates":[68.773879,38.560035]}},{"type":"Feature","properties":{"name":"Asunci\u00f3n","rank":3},"bbox":[-57.625834,-25.290671,-57.625834,-25.290671],"geometry":{"type":"Point","coordinates":[-57.625834,-25.290671]}},{"type":"Feature","properties":{"name":"Managua","rank":3},"bbox":[-86.270437,12.154962,-86.270437,12.154962],"geometry":{"type":"Point","coordinates":[-86.270437,12.154962]}},{"type":"Feature","properties":{"name":"Freetown","rank":3},"bbox":[-13.236162,8.471957,-13.236162,8.471957],"geometry":{"type":"Point","coordinates":[-13.236162,8.471957]}},{"type":"Feature","properties":{"name":"Islamabad","rank":3},"bbox":[73.08063,33.689368,73.08063,33.689368],"geometry":{"type":"Point","coordinates":[73.08063,33.689368]}},{"type":"Feature","properties":{"name":"Kathmandu","rank":3},"bbox":[85.314696,27.718638,85.314696,27.718638],"geometry":{"type":"Point","coordinates":[85.314696,27.718638]}},{"type":"Feature","properties":{"name":"Bloemfontein","rank":3},"bbox":[26.229913,-29.119994,26.229913,-29.119994],"geometry":{"type":"Point","coordinates":[26.229913,-29.119994]}},{"type":"Feature","properties":{"name":"Pretoria","rank":3},"bbox":[28.227483,-25.704975,28.227483,-25.704975],"geometry":{"type":"Point","coordinates":[28.227483,-25.704975]}},{"type":"Feature","properties":{"name":"Port Moresby","rank":3},"bbox":[147.192504,-9.464708,147.192504,-9.464708],"geometry":{"type":"Point","coordinates":[147.192504,-9.464708]}},{"type":"Feature","properties":{"name":"Honiara","rank":3},"bbox":[159.949766,-9.437994,159.949766,-9.437994],"geometry":{"type":"Point","coordinates":[159.949766,-9.437994]}},{"type":"Feature","properties":{"name":"Panama City","rank":3},"bbox":[-79.534983,8.969963,-79.534983,8.969963],"geometry":{"type":"Point","coordinates":[-79.534983,8.969963]}},{"type":"Feature","properties":{"name":"Rabat","rank":3},"bbox":[-6.836408,34.025307,-6.836408,34.025307],"geometry":{"type":"Point","coordinates":[-6.836408,34.025307]}},{"type":"Feature","properties":{"name":"Chi\u0219in\u0103u","rank":3},"bbox":[28.857711,47.005024,28.857711,47.005024],"geometry":{"type":"Point","coordinates":[28.857711,47.005024]}},{"type":"Feature","properties":{"name":"Maputo","rank":3},"bbox":[32.587217,-25.953332,32.587217,-25.953332],"geometry":{"type":"Point","coordinates":[32.587217,-25.953332]}},{"type":"Feature","properties":{"name":"Mogadishu","rank":3},"bbox":[45.364732,2.068627,45.364732,2.068627],"geometry":{"type":"Point","coordinates":[45.364732,2.068627]}},{"type":"Feature","properties":{"name":"Muscat","rank":3},"bbox":[58.378311,23.585179,58.378311,23.585179],"geometry":{"type":"Point","coordinates":[58.378311,23.585179]}},{"type":"Feature","properties":{"name":"Colombo","rank":3},"bbox":[79.857751,6.931966,79.857751,6.931966],"geometry":{"type":"Point","coordinates":[79.857751,6.931966]}},{"type":"Feature","properties":{"name":"Ulaanbaatar","rank":3},"bbox":[106.91467,47.918619,106.91467,47.918619],"geometry":{"type":"Point","coordinates":[106.91467,47.918619]}},{"type":"Feature","properties":{"name":"Windhoek","rank":3},"bbox":[17.083546,-22.570006,17.083546,-22.570006],"geometry":{"type":"Point","coordinates":[17.083546,-22.570006]}},{"type":"Feature","properties":{"name":"Abuja","rank":3},"bbox":[7.489505,9.05462,7.489505,9.05462],"geometry":{"type":"Point","coordinates":[7.489505,9.05462]}},{"type":"Feature","properties":{"name":"Bissau","rank":3},"bbox":[-15.598361,11.865024,-15.598361,11.865024],"geometry":{"type":"Point","coordinates":[-15.598361,11.865024]}},{"type":"Feature","properties":{"name":"Amman","rank":3},"bbox":[35.931354,31.951971,35.931354,31.951971],"geometry":{"type":"Point","coordinates":[35.931354,31.951971]}},{"type":"Feature","properties":{"name":"Vilnius","rank":3},"bbox":[25.316635,54.683366,25.316635,54.683366],"geometry":{"type":"Point","coordinates":[25.316635,54.683366]}},{"type":"Feature","properties":{"name":"Riga","rank":3},"bbox":[24.099965,56.950024,24.099965,56.950024],"geometry":{"type":"Point","coordinates":[24.099965,56.950024]}},{"type":"Feature","properties":{"name":"Bishkek","rank":3},"bbox":[74.583258,42.875025,74.583258,42.875025],"geometry":{"type":"Point","coordinates":[74.583258,42.875025]}},{"type":"Feature","properties":{"name":"Maseru","rank":3},"bbox":[27.483273,-29.316674,27.483273,-29.316674],"geometry":{"type":"Point","coordinates":[27.483273,-29.316674]}},{"type":"Feature","properties":{"name":"Antananarivo","rank":3},"bbox":[47.514678,-18.914691,47.514678,-18.914691],"geometry":{"type":"Point","coordinates":[47.514678,-18.914691]}},{"type":"Feature","properties":{"name":"Quito","rank":3},"bbox":[-78.501997,-0.213042,-78.501997,-0.213042],"geometry":{"type":"Point","coordinates":[-78.501997,-0.213042]}},{"type":"Feature","properties":{"name":"San Jos\u00e9","rank":3},"bbox":[-84.078814,9.930371,-84.078814,9.930371],"geometry":{"type":"Point","coordinates":[-84.078814,9.930371]}},{"type":"Feature","properties":{"name":"San Salvador","rank":3},"bbox":[-89.215576,13.70328,-89.215576,13.70328],"geometry":{"type":"Point","coordinates":[-89.215576,13.70328]}},{"type":"Feature","properties":{"name":"Kingston","rank":3},"bbox":[-76.767434,17.977077,-76.767434,17.977077],"geometry":{"type":"Point","coordinates":[-76.767434,17.977077]}},{"type":"Feature","properties":{"name":"N'Djamena","rank":3},"bbox":[15.047202,12.115042,15.047202,12.115042],"geometry":{"type":"Point","coordinates":[15.047202,12.115042]}},{"type":"Feature","properties":{"name":"Malabo","rank":3},"bbox":[8.783278,3.750015,8.783278,3.750015],"geometry":{"type":"Point","coordinates":[8.783278,3.750015]}},{"type":"Feature","properties":{"name":"Asmara","rank":3},"bbox":[38.933324,15.333339,38.933324,15.333339],"geometry":{"type":"Point","coordinates":[38.933324,15.333339]}},{"type":"Feature","properties":{"name":"Zagreb","rank":3},"bbox":[15.999995,45.800007,15.999995,45.800007],"geometry":{"type":"Point","coordinates":[15.999995,45.800007]}},{"type":"Feature","properties":{"name":"Tallinn","rank":3},"bbox":[24.728041,59.433877,24.728041,59.433877],"geometry":{"type":"Point","coordinates":[24.728041,59.433877]}},{"type":"Feature","properties":{"name":"Lilongwe","rank":3},"bbox":[33.783302,-13.983295,33.783302,-13.983295],"geometry":{"type":"Point","coordinates":[33.783302,-13.983295]}},{"type":"Feature","properties":{"name":"Guatemala City","rank":3},"bbox":[-90.528911,14.623081,-90.528911,14.623081],"geometry":{"type":"Point","coordinates":[-90.528911,14.623081]}},{"type":"Feature","properties":{"name":"Libreville","rank":3},"bbox":[9.457965,0.385389,9.457965,0.385389],"geometry":{"type":"Point","coordinates":[9.457965,0.385389]}},{"type":"Feature","properties":{"name":"Suva","rank":3},"bbox":[178.441707,-18.133016,178.441707,-18.133016],"geometry":{"type":"Point","coordinates":[178.441707,-18.133016]}},{"type":"Feature","properties":{"name":"Valpara\u00edso","rank":3},"bbox":[-71.617026,-33.047739,-71.617026,-33.047739],"geometry":{"type":"Point","coordinates":[-71.617026,-33.047739]}},{"type":"Feature","properties":{"name":"Nouakchott","rank":3},"bbox":[-15.97534,18.086427,-15.97534,18.086427],"geometry":{"type":"Point","coordinates":[-15.97534,18.086427]}},{"type":"Feature","properties":{"name":"Bamako","rank":3},"bbox":[-8.001985,12.65196,-8.001985,12.65196],"geometry":{"type":"Point","coordinates":[-8.001985,12.65196]}},{"type":"Feature","properties":{"name":"Beirut","rank":3},"bbox":[35.507762,33.873921,35.507762,33.873921],"geometry":{"type":"Point","coordinates":[35.507762,33.873921]}},{"type":"Feature","properties":{"name":"Tbilisi","rank":3},"bbox":[44.78885,41.726956,44.78885,41.726956],"geometry":{"type":"Point","coordinates":[44.78885,41.726956]}},{"type":"Feature","properties":{"name":"Nur-Sultan","rank":3},"bbox":[71.427774,51.181125,71.427774,51.181125],"geometry":{"type":"Point","coordinates":[71.427774,51.181125]}},{"type":"Feature","properties":{"name":"Vientiane","rank":3},"bbox":[102.59998,17.966693,102.59998,17.966693],"geometry":{"type":"Point","coordinates":[102.59998,17.966693]}},{"type":"Feature","properties":{"name":"Brazzaville","rank":3},"bbox":[15.282744,-4.25724,15.282744,-4.25724],"geometry":{"type":"Point","coordinates":[15.282744,-4.25724]}},{"type":"Feature","properties":{"name":"Conakry","rank":3},"bbox":[-13.682181,9.533469,-13.682181,9.533469],"geometry":{"type":"Point","coordinates":[-13.682181,9.533469]}},{"type":"Feature","properties":{"name":"Yamoussoukro","rank":3},"bbox":[-5.275503,6.818381,-5.275503,6.818381],"geometry":{"type":"Point","coordinates":[-5.275503,6.818381]}},{"type":"Feature","properties":{"name":"Ottawa","rank":3},"bbox":[-75.701961,45.418643,-75.701961,45.418643],"geometry":{"type":"Point","coordinates":[-75.701961,45.418643]}},{"type":"Feature","properties":{"name":"Belgrade","rank":3},"bbox":[20.466045,44.820591,20.466045,44.820591],"geometry":{"type":"Point","coordinates":[20.466045,44.820591]}},{"type":"Feature","properties":{"name":"Bandar Seri Begawan","rank":3},"bbox":[114.933284,4.883331,114.933284,4.883331],"geometry":{"type":"Point","coordinates":[114.933284,4.883331]}},{"type":"Feature","properties":{"name":"Sucre","rank":3},"bbox":[-65.259516,-19.040971,-65.259516,-19.040971],"geometry":{"type":"Point","coordinates":[-65.259516,-19.040971]}},{"type":"Feature","properties":{"name":"Belmopan","rank":3},"bbox":[-88.767073,17.252033,-88.767073,17.252033],"geometry":{"type":"Point","coordinates":[-88.767073,17.252033]}},{"type":"Feature","properties":{"name":"Bangui","rank":3},"bbox":[18.558288,4.366644,18.558288,4.366644],"geometry":{"type":"Point","coordinates":[18.558288,4.366644]}},{"type":"Feature","properties":{"name":"Yaound\u00e9","rank":3},"bbox":[11.514705,3.868647,11.514705,3.868647],"geometry":{"type":"Point","coordinates":[11.514705,3.868647]}},{"type":"Feature","properties":{"name":"Tirana","rank":3},"bbox":[19.818883,41.327541,19.818883,41.327541],"geometry":{"type":"Point","coordinates":[19.818883,41.327541]}},{"type":"Feature","properties":{"name":"Yerevan","rank":3},"bbox":[44.511606,40.183097,44.511606,40.183097],"geometry":{"type":"Point","coordinates":[44.511606,40.183097]}},{"type":"Feature","properties":{"name":"Baku","rank":3},"bbox":[49.860271,40.397218,49.860271,40.397218],"geometry":{"type":"Point","coordinates":[49.860271,40.397218]}},{"type":"Feature","properties":{"name":"Phnom Penh","rank":3},"bbox":[104.914689,11.551976,104.914689,11.551976],"geometry":{"type":"Point","coordinates":[104.914689,11.551976]}},{"type":"Feature","properties":{"name":"La Paz","rank":3},"bbox":[-68.151931,-16.496028,-68.151931,-16.496028],"geometry":{"type":"Point","coordinates":[-68.151931,-16.496028]}},{"type":"Feature","properties":{"name":"Cotonou","rank":3},"bbox":[2.404355,6.36298,2.404355,6.36298],"geometry":{"type":"Point","coordinates":[2.404355,6.36298]}},{"type":"Feature","properties":{"name":"Sofia","rank":3},"bbox":[23.314708,42.685295,23.314708,42.685295],"geometry":{"type":"Point","coordinates":[23.314708,42.685295]}},{"type":"Feature","properties":{"name":"Minsk","rank":3},"bbox":[27.564681,53.901923,27.564681,53.901923],"geometry":{"type":"Point","coordinates":[27.564681,53.901923]}},{"type":"Feature","properties":{"name":"Thimphu","rank":3},"bbox":[89.639014,27.472986,89.639014,27.472986],"geometry":{"type":"Point","coordinates":[89.639014,27.472986]}},{"type":"Feature","properties":{"name":"Gaborone","rank":3},"bbox":[25.911948,-24.646314,25.911948,-24.646314],"geometry":{"type":"Point","coordinates":[25.911948,-24.646314]}},{"type":"Feature","properties":{"name":"Canberra","rank":3},"bbox":[149.129026,-35.283029,149.129026,-35.283029],"geometry":{"type":"Point","coordinates":[149.129026,-35.283029]}},{"type":"Feature","properties":{"name":"Ouagadougou","rank":3},"bbox":[-1.52667,12.372262,-1.52667,12.372262],"geometry":{"type":"Point","coordinates":[-1.52667,12.372262]}},{"type":"Feature","properties":{"name":"Sarajevo","rank":3},"bbox":[18.383002,43.850022,18.383002,43.850022],"geometry":{"type":"Point","coordinates":[18.383002,43.850022]}},{"type":"Feature","properties":{"name":"Naypyidaw","rank":3},"bbox":[96.116673,19.768503,96.116673,19.768503],"geometry":{"type":"Point","coordinates":[96.116673,19.768503]}},{"type":"Feature","properties":{"name":"Nuku'alofa","rank":3},"bbox":[-175.220564,-21.138512,-175.220564,-21.138512],"geometry":{"type":"Point","coordinates":[-175.220564,-21.138512]}},{"type":"Feature","properties":{"name":"Hargeisa","rank":3},"bbox":[44.06531,9.560022,44.06531,9.560022],"geometry":{"type":"Point","coordinates":[44.06531,9.560022]}},{"type":"Feature","properties":{"name":"Victoria","rank":3},"bbox":[55.44999,-4.616632,55.44999,-4.616632],"geometry":{"type":"Point","coordinates":[55.44999,-4.616632]}},{"type":"Feature","properties":{"name":"S\u00e3o Tom\u00e9","rank":3},"bbox":[6.72965,0.337466,6.72965,0.337466],"geometry":{"type":"Point","coordinates":[6.72965,0.337466]}},{"type":"Feature","properties":{"name":"Apia","rank":3},"bbox":[-171.768599,-13.835715,-171.768599,-13.835715],"geometry":{"type":"Point","coordinates":[-171.768599,-13.835715]}},{"type":"Feature","properties":{"name":"Valletta","rank":3},"bbox":[14.514711,35.899732,14.514711,35.899732],"geometry":{"type":"Point","coordinates":[14.514711,35.899732]}},{"type":"Feature","properties":{"name":"Mal\u00e9","rank":3},"bbox":[73.508901,4.172037,73.508901,4.172037],"geometry":{"type":"Point","coordinates":[73.508901,4.172037]}},{"type":"Feature","properties":{"name":"Jerusalem","rank":3},"bbox":[35.206626,31.778408,35.206626,31.778408],"geometry":{"type":"Point","coordinates":[35.206626,31.778408]}},{"type":"Feature","properties":{"name":"Praia","rank":3},"bbox":[-23.516689,14.916698,-23.516689,14.916698],"geometry":{"type":"Point","coordinates":[-23.516689,14.916698]}},{"type":"Feature","properties":{"name":"Nassau","rank":3},"bbox":[-77.350044,25.08339,-77.350044,25.08339],"geometry":{"type":"Point","coordinates":[-77.350044,25.08339]}},{"type":"Feature","properties":{"name":"Nicosia","rank":3},"bbox":[33.366635,35.166677,33.366635,35.166677],"geometry":{"type":"Point","coordinates":[33.366635,35.166677]}},{"type":"Feature","properties":{"name":"Wellington","rank":3},"bbox":[174.777201,-41.292068,174.777201,-41.292068],"geometry":{"type":"Point","coordinates":[174.777201,-41.292068]}},{"type":"Feature","properties":{"name":"Hanoi","rank":2},"bbox":[105.848068,21.035273,105.848068,21.035273],"geometry":{"type":"Point","coordinates":[105.848068,21.035273]}},{"type":"Feature","properties":{"name":"Ankara","rank":2},"bbox":[32.862446,39.929184,32.862446,39.929184],"geometry":{"type":"Point","coordinates":[32.862446,39.929184]}},{"type":"Feature","properties":{"name":"Budapest","rank":2},"bbox":[19.081375,47.501952,19.081375,47.501952],"geometry":{"type":"Point","coordinates":[19.081375,47.501952]}},{"type":"Feature","properties":{"name":"Sanaa","rank":2},"bbox":[44.204648,15.356679,44.204648,15.356679],"geometry":{"type":"Point","coordinates":[44.204648,15.356679]}},{"type":"Feature","properties":{"name":"Bucharest","rank":2},"bbox":[26.098001,44.435318,26.098001,44.435318],"geometry":{"type":"Point","coordinates":[26.098001,44.435318]}},{"type":"Feature","properties":{"name":"Damascus","rank":2},"bbox":[36.29805,33.50198,36.29805,33.50198],"geometry":{"type":"Point","coordinates":[36.29805,33.50198]}},{"type":"Feature","properties":{"name":"Lisbon","rank":2},"bbox":[-9.146812,38.724669,-9.146812,38.724669],"geometry":{"type":"Point","coordinates":[-9.146812,38.724669]}},{"type":"Feature","properties":{"name":"Khartoum","rank":2},"bbox":[32.532233,15.590024,32.532233,15.590024],"geometry":{"type":"Point","coordinates":[32.532233,15.590024]}},{"type":"Feature","properties":{"name":"Oslo","rank":2},"bbox":[10.748033,59.918636,10.748033,59.918636],"geometry":{"type":"Point","coordinates":[10.748033,59.918636]}},{"type":"Feature","properties":{"name":"Warsaw","rank":2},"bbox":[21.005347,52.230872,21.005347,52.230872],"geometry":{"type":"Point","coordinates":[21.005347,52.230872]}},{"type":"Feature","properties":{"name":"Pyongyang","rank":2},"bbox":[125.752745,39.021385,125.752745,39.021385],"geometry":{"type":"Point","coordinates":[125.752745,39.021385]}},{"type":"Feature","properties":{"name":"Dar es Salaam","rank":2},"bbox":[39.266396,-6.798067,39.266396,-6.798067],"geometry":{"type":"Point","coordinates":[39.266396,-6.798067]}},{"type":"Feature","properties":{"name":"Dublin","rank":2},"bbox":[-6.25698,53.346731,-6.25698,53.346731],"geometry":{"type":"Point","coordinates":[-6.25698,53.346731]}},{"type":"Feature","properties":{"name":"Monrovia","rank":2},"bbox":[-10.79966,6.314582,-10.79966,6.314582],"geometry":{"type":"Point","coordinates":[-10.79966,6.314582]}},{"type":"Feature","properties":{"name":"Kuala Lumpur","rank":2},"bbox":[101.688699,3.139797,101.688699,3.139797],"geometry":{"type":"Point","coordinates":[101.688699,3.139797]}},{"type":"Feature","properties":{"name":"Havana","rank":2},"bbox":[-82.366128,23.133905,-82.366128,23.133905],"geometry":{"type":"Point","coordinates":[-82.366128,23.133905]}},{"type":"Feature","properties":{"name":"Prague","rank":2},"bbox":[14.422939,50.086967,14.422939,50.086967],"geometry":{"type":"Point","coordinates":[14.422939,50.086967]}},{"type":"Feature","properties":{"name":"Kuwait City","rank":2},"bbox":[47.976355,29.371664,47.976355,29.371664],"geometry":{"type":"Point","coordinates":[47.976355,29.371664]}},{"type":"Feature","properties":{"name":"Santo Domingo","rank":2},"bbox":[-69.929742,18.470745,-69.929742,18.470745],"geometry":{"type":"Point","coordinates":[-69.929742,18.470745]}},{"type":"Feature","properties":{"name":"Accra","rank":2},"bbox":[-0.218662,5.55198,-0.218662,5.55198],"geometry":{"type":"Point","coordinates":[-0.218662,5.55198]}},{"type":"Feature","properties":{"name":"Tripoli","rank":2},"bbox":[13.180012,32.8925,13.180012,32.8925],"geometry":{"type":"Point","coordinates":[13.180012,32.8925]}},{"type":"Feature","properties":{"name":"Tel Aviv","rank":2},"bbox":[34.768066,32.081937,34.768066,32.081937],"geometry":{"type":"Point","coordinates":[34.768066,32.081937]}},{"type":"Feature","properties":{"name":"Helsinki","rank":2},"bbox":[24.932457,60.163804,24.932457,60.163804],"geometry":{"type":"Point","coordinates":[24.932457,60.163804]}},{"type":"Feature","properties":{"name":"K\u00f8benhavn","rank":2},"bbox":[12.56154,55.68051,12.56154,55.68051],"geometry":{"type":"Point","coordinates":[12.56154,55.68051]}},{"type":"Feature","properties":{"name":"Abidjan","rank":2},"bbox":[-4.020207,5.323126,-4.020207,5.323126],"geometry":{"type":"Point","coordinates":[-4.020207,5.323126]}},{"type":"Feature","properties":{"name":"Bras\u00edlia","rank":2},"bbox":[-47.917998,-15.781394,-47.917998,-15.781394],"geometry":{"type":"Point","coordinates":[-47.917998,-15.781394]}},{"type":"Feature","properties":{"name":"Brussels","rank":2},"bbox":[4.331371,50.835263,4.331371,50.835263],"geometry":{"type":"Point","coordinates":[4.331371,50.835263]}},{"type":"Feature","properties":{"name":"Dhaka","rank":2},"bbox":[90.406634,23.725006,90.406634,23.725006],"geometry":{"type":"Point","coordinates":[90.406634,23.725006]}},{"type":"Feature","properties":{"name":"Luanda","rank":2},"bbox":[13.232481,-8.83634,13.232481,-8.83634],"geometry":{"type":"Point","coordinates":[13.232481,-8.83634]}},{"type":"Feature","properties":{"name":"Algiers","rank":2},"bbox":[3.048607,36.765011,3.048607,36.765011],"geometry":{"type":"Point","coordinates":[3.048607,36.765011]}},{"type":"Feature","properties":{"name":"Yangon","rank":2},"bbox":[96.164732,16.7853,96.164732,16.7853],"geometry":{"type":"Point","coordinates":[96.164732,16.7853]}},{"type":"Feature","properties":{"name":"San Francisco","rank":1},"bbox":[-122.3996,37.784263,-122.3996,37.784263],"geometry":{"type":"Point","coordinates":[-122.3996,37.784263]}},{"type":"Feature","properties":{"name":"Denver","rank":1},"bbox":[-104.985962,39.741134,-104.985962,39.741134],"geometry":{"type":"Point","coordinates":[-104.985962,39.741134]}},{"type":"Feature","properties":{"name":"Houston","rank":1},"bbox":[-95.348436,29.741273,-95.348436,29.741273],"geometry":{"type":"Point","coordinates":[-95.348436,29.741273]}},{"type":"Feature","properties":{"name":"Miami","rank":1},"bbox":[-80.226052,25.789557,-80.226052,25.789557],"geometry":{"type":"Point","coordinates":[-80.226052,25.789557]}},{"type":"Feature","properties":{"name":"Atlanta","rank":1},"bbox":[-84.367642,33.739457,-84.367642,33.739457],"geometry":{"type":"Point","coordinates":[-84.367642,33.739457]}},{"type":"Feature","properties":{"name":"Chicago","rank":1},"bbox":[-87.635237,41.847961,-87.635237,41.847961],"geometry":{"type":"Point","coordinates":[-87.635237,41.847961]}},{"type":"Feature","properties":{"name":"Caracas","rank":1},"bbox":[-66.918983,10.502944,-66.918983,10.502944],"geometry":{"type":"Point","coordinates":[-66.918983,10.502944]}},{"type":"Feature","properties":{"name":"Kyiv","rank":1},"bbox":[30.514682,50.435313,30.514682,50.435313],"geometry":{"type":"Point","coordinates":[30.514682,50.435313]}},{"type":"Feature","properties":{"name":"Dubai","rank":1},"bbox":[55.286946,25.214912,55.286946,25.214912],"geometry":{"type":"Point","coordinates":[55.286946,25.214912]}},{"type":"Feature","properties":{"name":"Tashkent","rank":1},"bbox":[69.268823,41.303828,69.268823,41.303828],"geometry":{"type":"Point","coordinates":[69.268823,41.303828]}},{"type":"Feature","properties":{"name":"Madrid","rank":1},"bbox":[-3.685297,40.401972,-3.685297,40.401972],"geometry":{"type":"Point","coordinates":[-3.685297,40.401972]}},{"type":"Feature","properties":{"name":"Geneva","rank":1},"bbox":[6.140028,46.210008,6.140028,46.210008],"geometry":{"type":"Point","coordinates":[6.140028,46.210008]}},{"type":"Feature","properties":{"name":"Stockholm","rank":1},"bbox":[18.0663,59.324127,18.0663,59.324127],"geometry":{"type":"Point","coordinates":[18.0663,59.324127]}},{"type":"Feature","properties":{"name":"Bangkok","rank":1},"bbox":[100.514699,13.751945,100.514699,13.751945],"geometry":{"type":"Point","coordinates":[100.514699,13.751945]}},{"type":"Feature","properties":{"name":"Lima","rank":1},"bbox":[-77.052008,-12.046067,-77.052008,-12.046067],"geometry":{"type":"Point","coordinates":[-77.052008,-12.046067]}},{"type":"Feature","properties":{"name":"Dakar","rank":1},"bbox":[-17.475076,14.717778,-17.475076,14.717778],"geometry":{"type":"Point","coordinates":[-17.475076,14.717778]}},{"type":"Feature","properties":{"name":"Johannesburg","rank":1},"bbox":[28.028064,-26.168099,28.028064,-26.168099],"geometry":{"type":"Point","coordinates":[28.028064,-26.168099]}},{"type":"Feature","properties":{"name":"Amsterdam","rank":1},"bbox":[4.914694,52.351914,4.914694,52.351914],"geometry":{"type":"Point","coordinates":[4.914694,52.351914]}},{"type":"Feature","properties":{"name":"Casablanca","rank":1},"bbox":[-7.618313,33.601922,-7.618313,33.601922],"geometry":{"type":"Point","coordinates":[-7.618313,33.601922]}},{"type":"Feature","properties":{"name":"Seoul","rank":1},"bbox":[126.997785,37.568295,126.997785,37.568295],"geometry":{"type":"Point","coordinates":[126.997785,37.568295]}},{"type":"Feature","properties":{"name":"Manila","rank":1},"bbox":[120.980271,14.606105,120.980271,14.606105],"geometry":{"type":"Point","coordinates":[120.980271,14.606105]}},{"type":"Feature","properties":{"name":"Monterrey","rank":1},"bbox":[-100.331931,25.671941,-100.331931,25.671941],"geometry":{"type":"Point","coordinates":[-100.331931,25.671941]}},{"type":"Feature","properties":{"name":"Berlin","rank":1},"bbox":[13.399603,52.523764,13.399603,52.523764],"geometry":{"type":"Point","coordinates":[13.399603,52.523764]}},{"type":"Feature","properties":{"name":"\u00dcr\u00fcmqi","rank":1},"bbox":[87.57306,43.806958,87.57306,43.806958],"geometry":{"type":"Point","coordinates":[87.57306,43.806958]}},{"type":"Feature","properties":{"name":"Chengdu","rank":1},"bbox":[104.068074,30.671946,104.068074,30.671946],"geometry":{"type":"Point","coordinates":[104.068074,30.671946]}},{"type":"Feature","properties":{"name":"\u014csaka","rank":1},"bbox":[135.503754,34.691095,135.503754,34.691095],"geometry":{"type":"Point","coordinates":[135.503754,34.691095]}},{"type":"Feature","properties":{"name":"Kinshasa","rank":1},"bbox":[15.313026,-4.327778,15.313026,-4.327778],"geometry":{"type":"Point","coordinates":[15.313026,-4.327778]}},{"type":"Feature","properties":{"name":"New Delhi","rank":1},"bbox":[77.19998,28.600023,77.19998,28.600023],"geometry":{"type":"Point","coordinates":[77.19998,28.600023]}},{"type":"Feature","properties":{"name":"Bengaluru","rank":1},"bbox":[77.558064,12.971941,77.558064,12.971941],"geometry":{"type":"Point","coordinates":[77.558064,12.971941]}},{"type":"Feature","properties":{"name":"Athens","rank":1},"bbox":[23.731375,37.985272,23.731375,37.985272],"geometry":{"type":"Point","coordinates":[23.731375,37.985272]}},{"type":"Feature","properties":{"name":"Baghdad","rank":1},"bbox":[44.391923,33.340594,44.391923,33.340594],"geometry":{"type":"Point","coordinates":[44.391923,33.340594]}},{"type":"Feature","properties":{"name":"Addis Ababa","rank":1},"bbox":[38.698059,9.035256,38.698059,9.035256],"geometry":{"type":"Point","coordinates":[38.698059,9.035256]}},{"type":"Feature","properties":{"name":"Tehran","rank":1},"bbox":[51.422398,35.673889,51.422398,35.673889],"geometry":{"type":"Point","coordinates":[51.422398,35.673889]}},{"type":"Feature","properties":{"name":"Vancouver","rank":1},"bbox":[-123.12359,49.275362,-123.12359,49.275362],"geometry":{"type":"Point","coordinates":[-123.12359,49.275362]}},{"type":"Feature","properties":{"name":"Toronto","rank":1},"bbox":[-79.389459,43.664645,-79.389459,43.664645],"geometry":{"type":"Point","coordinates":[-79.389459,43.664645]}},{"type":"Feature","properties":{"name":"Buenos Aires","rank":1},"bbox":[-58.432513,-34.610715,-58.432513,-34.610715],"geometry":{"type":"Point","coordinates":[-58.432513,-34.610715]}},{"type":"Feature","properties":{"name":"Kabul","rank":1},"bbox":[69.181314,34.518636,69.181314,34.518636],"geometry":{"type":"Point","coordinates":[69.181314,34.518636]}},{"type":"Feature","properties":{"name":"Vienna","rank":1},"bbox":[16.364693,48.201961,16.364693,48.201961],"geometry":{"type":"Point","coordinates":[16.364693,48.201961]}},{"type":"Feature","properties":{"name":"Melbourne","rank":1},"bbox":[144.97307,-37.818086,144.97307,-37.818086],"geometry":{"type":"Point","coordinates":[144.97307,-37.818086]}},{"type":"Feature","properties":{"name":"Taipei","rank":1},"bbox":[121.568333,25.035833,121.568333,25.035833],"geometry":{"type":"Point","coordinates":[121.568333,25.035833]}},{"type":"Feature","properties":{"name":"Auckland","rank":1},"bbox":[174.763027,-36.848055,174.763027,-36.848055],"geometry":{"type":"Point","coordinates":[174.763027,-36.848055]}},{"type":"Feature","properties":{"name":"Los Angeles","rank":0},"bbox":[-118.231986,34.049219,-118.231986,34.049219],"geometry":{"type":"Point","coordinates":[-118.231986,34.049219]}},{"type":"Feature","properties":{"name":"Washington,  D.C.","rank":0},"bbox":[-77.011364,38.901495,-77.011364,38.901495],"geometry":{"type":"Point","coordinates":[-77.011364,38.901495]}},{"type":"Feature","properties":{"name":"New York","rank":0},"bbox":[-73.995718,40.721562,-73.995718,40.721562],"geometry":{"type":"Point","coordinates":[-73.995718,40.721562]}},{"type":"Feature","properties":{"name":"London","rank":0},"bbox":[-0.118668,51.501941,-0.118668,51.501941],"geometry":{"type":"Point","coordinates":[-0.118668,51.501941]}},{"type":"Feature","properties":{"name":"Istanbul","rank":0},"bbox":[28.974277,41.017602,28.974277,41.017602],"geometry":{"type":"Point","coordinates":[28.974277,41.017602]}},{"type":"Feature","properties":{"name":"Riyadh","rank":0},"bbox":[46.720487,24.634497,46.720487,24.634497],"geometry":{"type":"Point","coordinates":[46.720487,24.634497]}},{"type":"Feature","properties":{"name":"Cape Town","rank":0},"bbox":[18.433042,-33.918065,18.433042,-33.918065],"geometry":{"type":"Point","coordinates":[18.433042,-33.918065]}},{"type":"Feature","properties":{"name":"Moscow","rank":0},"bbox":[37.613577,55.75411,37.613577,55.75411],"geometry":{"type":"Point","coordinates":[37.613577,55.75411]}},{"type":"Feature","properties":{"name":"Mexico City","rank":0},"bbox":[-99.132934,19.444388,-99.132934,19.444388],"geometry":{"type":"Point","coordinates":[-99.132934,19.444388]}},{"type":"Feature","properties":{"name":"Lagos","rank":0},"bbox":[3.389585,6.445208,3.389585,6.445208],"geometry":{"type":"Point","coordinates":[3.389585,6.445208]}},{"type":"Feature","properties":{"name":"Rome","rank":0},"bbox":[12.481313,41.897902,12.481313,41.897902],"geometry":{"type":"Point","coordinates":[12.481313,41.897902]}},{"type":"Feature","properties":{"name":"Beijing","rank":0},"bbox":[116.394201,39.90172,116.394201,39.90172],"geometry":{"type":"Point","coordinates":[116.394201,39.90172]}},{"type":"Feature","properties":{"name":"Nairobi","rank":0},"bbox":[36.814711,-1.281401,36.814711,-1.281401],"geometry":{"type":"Point","coordinates":[36.814711,-1.281401]}},{"type":"Feature","properties":{"name":"Jakarta","rank":0},"bbox":[106.827492,-6.172472,106.827492,-6.172472],"geometry":{"type":"Point","coordinates":[106.827492,-6.172472]}},{"type":"Feature","properties":{"name":"Bogota","rank":0},"bbox":[-74.08529,4.598369,-74.08529,4.598369],"geometry":{"type":"Point","coordinates":[-74.08529,4.598369]}},{"type":"Feature","properties":{"name":"Cairo","rank":0},"bbox":[31.248022,30.051906,31.248022,30.051906],"geometry":{"type":"Point","coordinates":[31.248022,30.051906]}},{"type":"Feature","properties":{"name":"Shanghai","rank":0},"bbox":[121.434559,31.218398,121.434559,31.218398],"geometry":{"type":"Point","coordinates":[121.434559,31.218398]}},{"type":"Feature","properties":{"name":"Tokyo","rank":0},"bbox":[139.749462,35.686963,139.749462,35.686963],"geometry":{"type":"Point","coordinates":[139.749462,35.686963]}},{"type":"Feature","properties":{"name":"Mumbai","rank":0},"bbox":[72.875839,19.068408,72.875839,19.068408],"geometry":{"type":"Point","coordinates":[72.875839,19.068408]}},{"type":"Feature","properties":{"name":"Paris","rank":0},"bbox":[2.352992,48.858092,2.352992,48.858092],"geometry":{"type":"Point","coordinates":[2.352992,48.858092]}},{"type":"Feature","properties":{"name":"Santiago","rank":0},"bbox":[-70.650504,-33.440205,-70.650504,-33.440205],"geometry":{"type":"Point","coordinates":[-70.650504,-33.440205]}},{"type":"Feature","properties":{"name":"Kolkata","rank":0},"bbox":[88.369126,22.569579,88.369126,22.569579],"geometry":{"type":"Point","coordinates":[88.369126,22.569579]}},{"type":"Feature","properties":{"name":"Rio de Janeiro","rank":0},"bbox":[-43.212117,-22.907308,-43.212117,-22.907308],"geometry":{"type":"Point","coordinates":[-43.212117,-22.907308]}},{"type":"Feature","properties":{"name":"S\u00e3o Paulo","rank":0},"bbox":[-46.626966,-23.556734,-46.626966,-23.556734],"geometry":{"type":"Point","coordinates":[-46.626966,-23.556734]}},{"type":"Feature","properties":{"name":"Sydney","rank":0},"bbox":[151.212548,-33.871373,151.212548,-33.871373],"geometry":{"type":"Point","coordinates":[151.212548,-33.871373]}},{"type":"Feature","properties":{"name":"Singapore","rank":0},"bbox":[103.853875,1.294979,103.853875,1.294979],"geometry":{"type":"Point","coordinates":[103.853875,1.294979]}},{"type":"Feature","properties":{"name":"Hong Kong","rank":0},"bbox":[114.183064,22.306927,114.183064,22.306927],"geometry":{"type":"Point","coordinates":[114.183064,22.306927]}}],"bbox":[-175.2205645,-41.2920679923151,179.2166471,64.1434594631703]}